{
  "norad_id": 66979,
  "name": "STARLINK-36107",
  "history": [
    {
      "epoch": "2026-04-15T12:11:10.928832Z",
      "apogee_km": 483.55977384352445,
      "perigee_km": 482.43688043588463,
      "latitude_deg": -1.2878451726250435e-06,
      "longitude_deg": 149.45002932074104,
      "height_km": 482.6542229642772,
      "semi_major_axis_km": 6861.135327139704,
      "eccentricity": 8.183e-05,
      "inclination_deg": 43.0017,
      "raan_deg": 175.9144,
      "arg_perigee_deg": 282.3923,
      "mean_anomaly_deg": 77.6837,
      "mean_motion_rev_day": 15.27596955
    },
    {
      "epoch": "2026-04-16T13:17:41.102016Z",
      "apogee_km": 483.9128641244597,
      "perigee_km": 482.12759101384563,
      "latitude_deg": 3.0476246159988116e-05,
      "longitude_deg": 125.88597904104692,
      "height_km": 482.78548844378327,
      "semi_major_axis_km": 6861.157227569152,
      "eccentricity": 0.0001301,
      "inclination_deg": 43.0019,
      "raan_deg": 170.0072,
      "arg_perigee_deg": 270.7425,
      "mean_anomaly_deg": 89.3278,
      "mean_motion_rev_day": 15.27589641
    },
    {
      "epoch": "2026-04-17T11:15:53.498016Z",
      "apogee_km": 483.8595061299775,
      "perigee_km": 482.3186119816346,
      "latitude_deg": 1.9895031098578175e-05,
      "longitude_deg": 150.2636387857445,
      "height_km": 482.7833696113942,
      "semi_major_axis_km": 6861.226059055806,
      "eccentricity": 0.00011229,
      "inclination_deg": 43.0043,
      "raan_deg": 164.8388,
      "arg_perigee_deg": 276.1576,
      "mean_anomaly_deg": 83.9148,
      "mean_motion_rev_day": 15.27566654
    },
    {
      "epoch": "2026-04-18T20:13:08.813568Z",
      "apogee_km": 484.3087310016126,
      "perigee_km": 481.3681169349011,
      "latitude_deg": -2.240704787226236e-05,
      "longitude_deg": 6.840196349284361,
      "height_km": 482.3113329947504,
      "semi_major_axis_km": 6860.975423968257,
      "eccentricity": 0.0002143,
      "inclination_deg": 43.0006,
      "raan_deg": 157.0826,
      "arg_perigee_deg": 281.9501,
      "mean_anomaly_deg": 78.111,
      "mean_motion_rev_day": 15.27650359
    },
    {
      "epoch": "2026-04-19T10:20:33.369792Z",
      "apogee_km": 484.10666201682307,
      "perigee_km": 481.9276966725474,
      "latitude_deg": -5.046288029330171e-05,
      "longitude_deg": 151.0833172538945,
      "height_km": 482.7633000993197,
      "semi_major_axis_km": 6861.154179344685,
      "eccentricity": 0.00015879,
      "inclination_deg": 43.0018,
      "raan_deg": 153.7581,
      "arg_perigee_deg": 271.6275,
      "mean_anomaly_deg": 88.4394,
      "mean_motion_rev_day": 15.27590659
    },
    {
      "epoch": "2026-04-20T09:52:55.099776Z",
      "apogee_km": 484.5100851965817,
      "perigee_km": 481.638256648881,
      "latitude_deg": -2.454157471500531e-05,
      "longitude_deg": 151.48657411812226,
      "height_km": 482.32594504461196,
      "semi_major_axis_km": 6861.211170922731,
      "eccentricity": 0.00020928,
      "inclination_deg": 43.0021,
      "raan_deg": 148.2186,
      "arg_perigee_deg": 291.4746,
      "mean_anomaly_deg": 68.5882,
      "mean_motion_rev_day": 15.27571626
    },
    {
      "epoch": "2026-04-21T18:50:13.454016Z",
      "apogee_km": 484.04398588088225,
      "perigee_km": 482.0679623043443,
      "latitude_deg": 1.7387161733613706e-06,
      "longitude_deg": 8.05320498690742,
      "height_km": 482.4564679513832,
      "semi_major_axis_km": 6861.192974092613,
      "eccentricity": 0.000144,
      "inclination_deg": 43.0015,
      "raan_deg": 140.4651,
      "arg_perigee_deg": 292.3918,
      "mean_anomaly_deg": 67.6781,
      "mean_motion_rev_day": 15.27577703
    },
    {
      "epoch": "2026-04-22T18:22:33.951072Z",
      "apogee_km": 483.9476573110842,
      "perigee_km": 482.08416817998295,
      "latitude_deg": 6.064733725337456e-06,
      "longitude_deg": 8.460289289523024,
      "height_km": 482.4205361785436,
      "semi_major_axis_km": 6861.152912745533,
      "eccentricity": 0.0001358,
      "inclination_deg": 43.0025,
      "raan_deg": 134.9243,
      "arg_perigee_deg": 293.55,
      "mean_anomaly_deg": 66.5209,
      "mean_motion_rev_day": 15.27591082
    },
    {
      "epoch": "2026-04-23T08:29:58.062336Z",
      "apogee_km": 483.77482657814835,
      "perigee_km": 482.2222888241513,
      "latitude_deg": -2.2786342385733507e-07,
      "longitude_deg": 152.7074918218875,
      "height_km": 482.38004436525415,
      "semi_major_axis_km": 6861.135557701149,
      "eccentricity": 0.00011314,
      "inclination_deg": 43.0037,
      "raan_deg": 131.602,
      "arg_perigee_deg": 300.614,
      "mean_anomaly_deg": 59.46,
      "mean_motion_rev_day": 15.27596878
    },
    {
      "epoch": "2026-04-24T20:35:32.756928Z",
      "apogee_km": 483.55607879946,
      "perigee_km": 482.3114805600253,
      "latitude_deg": -7.516519355462483e-06,
      "longitude_deg": -38.661764308649005,
      "height_km": 482.40377117844776,
      "semi_major_axis_km": 6861.070779679742,
      "eccentricity": 9.07e-05,
      "inclination_deg": 43.0016,
      "raan_deg": 123.1096,
      "arg_perigee_deg": 299.4961,
      "mean_anomaly_deg": 60.58,
      "mean_motion_rev_day": 15.27618512
    },
    {
      "epoch": "2026-04-25T16:59:36.822912Z",
      "apogee_km": 483.6622135255893,
      "perigee_km": 482.53011005389453,
      "latitude_deg": -2.7037148580029525e-05,
      "longitude_deg": 9.683428491628465,
      "height_km": 482.7233418101889,
      "semi_major_axis_km": 6861.233161789742,
      "eccentricity": 8.25e-05,
      "inclination_deg": 43.0018,
      "raan_deg": 118.3096,
      "arg_perigee_deg": 285.285,
      "mean_anomaly_deg": 74.791,
      "mean_motion_rev_day": 15.27564282
    },
    {
      "epoch": "2026-04-26T19:40:16.601376Z",
      "apogee_km": 483.4955600239591,
      "perigee_km": 482.51853311172636,
      "latitude_deg": 5.0709471183437636e-05,
      "longitude_deg": -37.85624663754092,
      "height_km": 482.7465393836805,
      "semi_major_axis_km": 6861.144046567842,
      "eccentricity": 7.12e-05,
      "inclination_deg": 43.0016,
      "raan_deg": 112.0312,
      "arg_perigee_deg": 274.318,
      "mean_anomaly_deg": 85.7591,
      "mean_motion_rev_day": 15.27594043
    },
    {
      "epoch": "2026-04-27T16:04:17.837760Z",
      "apogee_km": 483.34591112595353,
      "perigee_km": 482.60765528287993,
      "latitude_deg": -1.3001861689546551e-06,
      "longitude_deg": 10.500434616017815,
      "height_km": 482.7666345034054,
      "semi_major_axis_km": 6861.113783204416,
      "eccentricity": 5.38e-05,
      "inclination_deg": 43.0012,
      "raan_deg": 107.2309,
      "arg_perigee_deg": 267.8598,
      "mean_anomaly_deg": 92.2192,
      "mean_motion_rev_day": 15.2760415
    },
    {
      "epoch": "2026-04-27T23:55:04.344384Z",
      "apogee_km": 483.22317483652296,
      "perigee_km": 482.6908911614428,
      "latitude_deg": -3.426431927537519e-05,
      "longitude_deg": -109.36191198101652,
      "height_km": 482.84709523953364,
      "semi_major_axis_km": 6861.094032998983,
      "eccentricity": 3.879e-05,
      "inclination_deg": 43.0013,
      "raan_deg": 105.3846,
      "arg_perigee_deg": 244.5958,
      "mean_anomaly_deg": 115.4853,
      "mean_motion_rev_day": 15.27610746
    },
    {
      "epoch": "2026-04-29T10:26:31.134048Z",
      "apogee_km": 483.81364964190107,
      "perigee_km": 482.3538563144966,
      "latitude_deg": 2.202697599877346e-05,
      "longitude_deg": 83.23447052600011,
      "height_km": 482.9901470427361,
      "semi_major_axis_km": 6861.220752978198,
      "eccentricity": 0.00010638,
      "inclination_deg": 43.0012,
      "raan_deg": 97.2604,
      "arg_perigee_deg": 259.7501,
      "mean_anomaly_deg": 100.3231,
      "mean_motion_rev_day": 15.27568426
    },
    {
      "epoch": "2026-04-30T14:41:20.308704Z",
      "apogee_km": 483.6186627739098,
      "perigee_km": 482.39641848544125,
      "latitude_deg": 1.1175224732493344e-05,
      "longitude_deg": 11.722001631373852,
      "height_km": 482.87997063127943,
      "semi_major_axis_km": 6861.144540629675,
      "eccentricity": 8.907e-05,
      "inclination_deg": 43.0009,
      "raan_deg": 90.6129,
      "arg_perigee_deg": 260.9532,
      "mean_anomaly_deg": 99.1219,
      "mean_motion_rev_day": 15.27593878
    },
    {
      "epoch": "2026-05-02T09:03:33.120288Z",
      "apogee_km": 483.79298519427175,
      "perigee_km": 482.2492246206675,
      "latitude_deg": -3.567160849455415e-05,
      "longitude_deg": 84.45908437837667,
      "height_km": 482.983303251809,
      "semi_major_axis_km": 6861.158104907469,
      "eccentricity": 0.0001125,
      "inclination_deg": 43.0009,
      "raan_deg": 80.6435,
      "arg_perigee_deg": 256.0806,
      "mean_anomaly_deg": 103.992,
      "mean_motion_rev_day": 15.27589348
    },
    {
      "epoch": "2026-05-03T13:18:22.512672Z",
      "apogee_km": 483.7265295582574,
      "perigee_km": 482.34468939471026,
      "latitude_deg": -1.4140098998675589e-05,
      "longitude_deg": 12.943937420950691,
      "height_km": 482.900616827234,
      "semi_major_axis_km": 6861.172609476484,
      "eccentricity": 0.0001007,
      "inclination_deg": 43.0023,
      "raan_deg": 73.9942,
      "arg_perigee_deg": 262.6488,
      "mean_anomaly_deg": 97.4249,
      "mean_motion_rev_day": 15.27584504
    },
    {
      "epoch": "2026-05-04T20:41:30.599808Z",
      "apogee_km": 483.2736662248999,
      "perigee_km": 482.77280152782714,
      "latitude_deg": 2.0348771484136292e-05,
      "longitude_deg": -106.50988657912166,
      "height_km": 482.74549477933886,
      "semi_major_axis_km": 6861.160233876363,
      "eccentricity": 3.65e-05,
      "inclination_deg": 42.9988,
      "raan_deg": 66.613,
      "arg_perigee_deg": 282.3054,
      "mean_anomaly_deg": 77.7757,
      "mean_motion_rev_day": 15.27588637
    }
  ]
}